GLOBALSTAR M063 [+]     
1 26081U 00008A   23333.54121060 -.00000067  00000+0  22424-3 0  9998
2 26081  51.9919 161.2500 0003676 323.5586  50.9349 11.86148395 90456
GLOBALSTAR M062 [-]     
1 26082U 00008B   23333.31482050 -.00000034  00000+0  46239-3 0  9997
2 26082  51.9861 319.7808 0007186 347.0495 121.6406 12.43422310426228
GLOBALSTAR M064 [-]     
1 26084U 00008D   23333.14859954 -.00000030  00000+0  75178-3 0  9991
2 26084  52.0033 267.7878 0002281  49.7509 310.3523 11.88512602 99792
GLOBALSTAR M065 [+]     
1 31571U 07020A   23333.81196830 -.00000056  00000+0  26508-3 0  9991
2 31571  51.9865 147.0089 0010707 133.0374 331.7022 12.61959458762326
GLOBALSTAR M069 [+]     
1 31573U 07020C   23333.53144057 -.00000105  00000+0 -77214-5 0  9994
2 31573  51.9934 103.9470 0001104 122.7552 314.7918 12.62261318763119
GLOBALSTAR M072 [+]     
1 31574U 07020D   23333.84503499 -.00000051  00000+0  29437-3 0  9999
2 31574  52.0068 198.7557 0001547  80.5291   0.5422 12.62269310761589
GLOBALSTAR M071 [P]     
1 31576U 07020F   23333.72329194 -.00000094  00000+0  52373-4 0  9999
2 31576  52.0049 108.3727 0000822 106.5738   2.1512 12.62273324763058
